73P-BT/Schwassmann-Wachmann,e,11.1744,199.1674,69.6452,3.088103,0.1816212,0.68944394,112.4498,05/09.0/2024,2000,g 11.5,6.0
# From MPEC 2022-P18
73P-BU/Schwassmann-Wachmann,e,11.0453,199.7180,70.6416,2.871903,0.2025114,0.66894995,125.9613,05/09.0/2024,2000,g 19.0,4.0
# From MPEC 2022-X67
73P-BV/Schwassmann-Wachmann,e,11.3335,69.3837,199.1636,3.138521,0.1772624,0.69476903,110.0829,05/09.0/2024,2000,g 19.0,4.0
# From MPEC 2022-R15
73P-BW/Schwassmann-Wachmann,e,10.4468,194.4882,70.2980,4.545346,0.1017077,0.78942439,63.0770,05/09.0/2024,2000,g 18.2,4.0
# From MPEC 2023-A50
73P-BX/Schwassmann-Wachmann,e,11.3461,69.3804,199.1887,3.118088,0.1790076,0.69262377,111.1148,05/09.0/2024,2000,g 17.5,4.0
# From MPEC 2022-R15
73P-BY/Schwassmann-Wachmann,e,11.1526,199.2046,69.7780,3.028858,0.1869760,0.68359497,116.3358,05/09.0/2024,2000,g 17.4,4.0
# From MPEC 2024-EF7
74P/Smirnova-Chernykh,e,6.4698,53.7073,118.3726,4.864282,0.0918705,0.03766195,238.5745,05/09.0/2024,2000,g  5.0,6.0
# From CCO 7
75D/Kohoutek,e,5.9256,269.5531,175.5528,3.537369,0.1481438,0.49934056,171.5284,05/09.0/2024,2000,g  9.5,6.0
# From MPEC 2022-K19
76P/West-Kohoutek-Ikemura,e,30.4875,84.1109,359.9566,3.468964,0.1525472,0.53930335,252.5225,05/09.0/2024,2000,g  8.0,12.0
# From MPEC 2023-TM6
77P/Longmore,e,24.3187,14.7617,196.6787,3.622050,0.1429790,0.35166763,57.4867,05/09.0/2024,2000,g  7.0,8.0
# From MPEC 2021-O56
78P/Gehrels,e,6.2568,210.5308,192.6925,3.735379,0.1365218,0.46318702,253.9270,05/09.0/2024,2000,g  5.5,8.0
# From MPC 94675
79P/du Toit-Hartley,e,3.1489,281.7720,280.5228,2.943673,0.1951505,0.61919817,43.2556,05/09.0/2024,2000,g 16.0,4.0
# From MPEC 2023-RF3
80P/Peters-Hartley,e,29.9240,259.7815,339.2796,4.022762,0.1221568,0.59817073,63.1869,05/09.0/2024,2000,g  9.0,8.0
# From MPEC 2024-F91
81P/Wild,e,3.2369,136.0935,41.5849,3.452679,0.1536278,0.53728562,78.4150,05/09.0/2024,2000,g  7.0,6.0
# From MPC133426
82P/Gehrels,e,1.1292,239.2328,226.4149,4.132225,0.1173351,0.12248262,251.9351,05/09.0/2024,2000,g 15.0,4.0
# From NK 932
83D/Russell,e,17.8264,226.3049,334.4275,3.843927,0.1307800,0.44132343,141.5893,05/09.0/2024,2000,g  9.0,4.0
# From MPEC 2020-FB5
84P/Giclas,e,7.5514,108.1580,281.6546,3.550090,0.1473483,0.51601356,211.3007,05/09.0/2024,2000,g  9.5,8.0
# From unp
85D/Boethin,e,4.1742,65.2843,333.0745,5.044356,0.0869952,0.77627596,119.9364,05/09.0/2024,2000,g  6.5,8.0
# From MPEC 2022-YB4
86P/Wild,e,15.5215,72.1021,180.6317,3.625411,0.1427803,0.36990251,117.1467,05/09.0/2024,2000,g 11.0,6.0
# From MPEC 2020-SI8
87P/Bus,e,2.7298,186.7722,51.2360,4.291549,0.1108621,0.23570948,164.2321,05/09.0/2024,2000,g  7.2,10.0
# From MPEC 2024-C04
88P/Howell,e,4.3820,56.6665,235.9175,3.107301,0.1799405,0.56320649,237.8414,05/09.0/2024,2000,g 11.0,6.0
# From MPEC 2024-JC2
89P/Russell,e,12.0720,41.3453,250.4016,3.751447,0.1356457,0.40773669,5.8860,05/09.0/2024,2000,g 11.5,6.0
# From MPEC 2022-K19
90P/Gehrels,e,9.6473,13.2128,29.1194,6.052189,0.0661966,0.51110531,166.2460,05/09.0/2024,2000,g  8.5,6.0
# From MPEC 2023-VM5
91P/Russell,e,16.4457,242.8259,359.4568,3.957100,0.1252099,0.31372935,164.2316,05/09.0/2024,2000,g  7.5,6.0
# From MPEC 2014-J58
92P/Sanguin,e,19.4931,181.3764,163.8011,5.342912,0.0798063,0.66047563,267.2688,05/09.0/2024,2000,g 12.0,6.0
# From NK 2707
93P/Lovas,e,12.2054,339.5777,74.9555,4.376934,0.1076339,0.61401040,282.0927,05/09.0/2024,2000,g  9.0,4.0
# From MPEC 2024-F91
94P/Russell,e,6.1879,70.8519,92.3990,3.510542,0.1498452,0.36569819,53.0389,05/09.0/2024,2000,g  9.0,6.0
# From MPC 75717
95P/Chiron,e,6.9228,209.1989,339.3948,13.70934,0.0194169,0.37693539,201.7511,05/09.0/2024,2000,g  6.5,2.0
# From MPEC 2023-N01
96P/Machholz,e,57.5517,93.9560,14.7407,3.030857,0.1867910,0.96163447,86.6492,05/09.0/2024,2000,g 13.0,4.8
# From MPC106348
96P-B/Machholz,e,57.5037,14.7102,93.9559,3.030089,0.1868620,0.96164684,86.6844,05/09.0/2024,2000,g 13.0,4.8
# From MPC103849
96P-C/Machholz,e,58.5311,94.3495,15.5380,3.011920,0.1885553,0.95889850,359.8715,07/14.0/2012,2000,g  9.0,4.0
# From MPEC 2024-GJ3
97P/Metcalf-Brewington,e,17.9480,184.0803,230.1118,4.766780,0.0947036,0.46028451,76.9933,05/09.0/2024,2000,g  5.5,6.0
# From MPEC 2021-W31
98P/Takamizawa,e,10.5747,114.6246,157.7249,3.789347,0.1336157,0.56285095,163.1416,05/09.0/2024,2000,g  9.0,8.0
# From MPEC 2024-A43
99P/Kowal,e,4.3393,28.0914,174.6533,6.096660,0.0654736,0.22852531,49.7616,05/09.0/2024,2000,g  4.5,6.0
# From MPEC 2023-OA6
100P/Hartley,e,25.5673,37.6856,181.9655,3.430596,0.1551135,0.41160752,98.8483,05/09.0/2024,2000,g  9.0,8.0
# From MPEC 2024-EF7
101P/Chernykh,e,5.0491,116.1574,277.8948,5.813807,0.0703094,0.59620942,110.9136,05/09.0/2024,2000,g 10.0,4.8
# From MPC105241
101P-B/Chernykh,e,5.0499,278.5424,115.5123,5.829301,0.0700292,0.59642006,109.2268,05/09.0/2024,2000,g  9.0,4.0
# From MPEC 2022-C56
102P/Shoemaker,e,25.8691,339.4100,20.6668,3.818599,0.1320833,0.45657110,158.8428,05/09.0/2024,2000,g  6.5,8.0
# From MPEC 2024-JC2
103P/Hartley,e,13.6107,219.7490,181.3028,3.474461,0.1521853,0.69372116,31.8819,05/09.0/2024,2000,g  8.5,8.0
# From MPEC 2023-G31
104P/Kowal,e,5.7030,207.2072,227.2598,3.208678,0.1714805,0.66589020,145.4200,05/09.0/2024,2000,g 16.0,4.0
# From MPEC 2024-F34
105P/SingerBrewster,e,9.1682,192.3976,46.3577,3.471616,0.1523725,0.40893446,320.5617,05/09.0/2024,2000,g 11.5,6.0
# From MPEC 2023-UR6
106P/Schuster,e,19.5404,48.8622,353.7726,3.767160,0.1347978,0.59389107,133.9771,05/09.0/2024,2000,g 14.0,4.8
# From MPEC 2015-M77
107P/Wilson-Harrington,e,2.7986,266.7452,95.5026,2.625325,0.2317018,0.63136906,144.4495,05/09.0/2024,2000,g  9.0,4.0
# From MPEC 2022-P82
108P/Ciffreo,e,11.4361,50.2978,354.5042,3.742639,0.1361248,0.55605108,132.2554,05/09.0/2024,2000,g  8.0,12.0
# From  105, 420
109P/Swift-Tuttle,e,113.4237,139.4743,153.2199,26.21261,0.0073441,0.96260372,84.1903,05/09.0/2024,2000,g  4.0,6.0
# From MPEC 2023-KD6
110P/Hartley,e,11.7080,287.4899,167.5051,3.603883,0.1440615,0.31903745,134.4387,05/09.0/2024,2000,g  1.0,12.0
# From MPC 75718
111P/Helin-Roman-Crockett,e,4.2259,89.8127,1.2283,4.152239,0.1164878,0.10714074,123.0045,05/09.0/2024,2000,g  5.0,8.0
# From MPEC 2021-S45
112P/Urata-Niijima,e,24.2091,31.8330,21.5041,3.523496,0.1490196,0.59085945,231.0039,05/09.0/2024,2000,g 14.0,6.0
# From MPEC 2024-JC2
113P/Spitaler,e,5.2877,306.6527,115.6447,3.694450,0.1387968,0.41993945,98.1665,05/09.0/2024,2000,g 13.5,4.0
# From MPEC 2023-A50
114P/Wiseman-Skiff,e,18.3015,271.0244,172.7689,3.541501,0.1478846,0.55596459,232.9776,05/09.0/2024,2000,g 11.5,6.0
# From MPEC 2023-J29
115P/Maury,e,11.6770,176.0137,120.9624,4.272101,0.1116200,0.51753473,154.1439,05/09.0/2024,2000,g 10.5,6.0
# From MPEC 2023-VM5
116P/Wild,e,3.6036,20.9694,173.2013,3.487482,0.1513339,0.37032926,100.2381,05/09.0/2024,2000,g  2.5,10.0
# From MPEC 2024-F91
117P/Helin-Roman-Alu,e,8.7054,58.8144,223.6824,4.096578,0.1188700,0.25594720,79.4178,05/09.0/2024,2000,g  2.5,8.0
# From MPEC 2024-JC2
118P/Shoemaker-Levy,e,10.0902,142.0819,314.8889,3.348293,0.1608677,0.45373149,85.5048,05/09.0/2024,2000,g 12.0,4.0
# From MPEC 2024-JC2
119P/Parker-Hartley,e,7.3923,104.5563,322.1850,3.807643,0.1326538,0.38837439,84.3258,05/09.0/2024,2000,g  3.5,8.0
# From MPEC 2022-CN4
120P/Mueller,e,8.4863,358.7224,36.7208,3.968123,0.1246885,0.37467554,136.8055,05/09.0/2024,2000,g 12.0,4.0
# From MPEC 2024-JC2
121P/Shoemaker-Holt,e,20.1627,94.1110,11.7642,4.586054,0.1003565,0.18652517,31.5689,05/09.0/2024,2000,g  6.5,8.0
# From MPC 75718
122P/de Vico,e,85.9611,79.7299,12.9930,17.62850,0.0133162,0.96247553,139.2797,05/09.0/2024,2000,g  7.5,5.2
# From MPEC 2021-F20
123P/West-Hartley,e,15.2802,45.9016,104.0133,3.881720,0.1288747,0.44430685,248.3165,05/09.0/2024,2000,g 12.2,4.0
# From MPEC 2023-T65
124P/Mrkos,e,31.4425,0.0595,185.1720,3.373617,0.1590598,0.48671224,236.6044,05/09.0/2024,2000,g 13.5,2.8
# From MPEC 2024-JC2
125P/Spacewatch,e,9.9848,153.1497,87.1375,3.129179,0.1780568,0.51211342,11.1659,05/09.0/2024,2000,g 13.0,6.0
# From MPEC 2024-F91
126P/IRAS,e,45.8708,357.8599,356.5783,5.633047,0.0737206,0.69637583,22.7598,05/09.0/2024,2000,g  6.0,8.0
# From MPEC 2024-AF0
127P/Holt-Olmstead,e,14.3002,13.6093,6.3130,3.452972,0.1536082,0.35923881,97.9408,05/09.0/2024,2000,g 11.0,6.0
# From MPC 89014
128P/Shoemaker-Holt,e,4.3703,214.3390,210.3714,4.485133,0.1037627,0.32239562,277.1597,05/09.0/2024,2000,g  8.5,4.0
# From MPEC 2024-JC2
129P/Shoemaker-Levy,e,3.4422,184.8608,307.5742,4.291902,0.1108484,0.08562796,58.1818,05/09.0/2024,2000,g 11.0,4.0
# From MPEC 2024-GJ3
130P/McNaught-Hughes,e,6.0636,70.1785,246.1292,3.381164,0.1585275,0.46084074,3.8226,05/09.0/2024,2000,g 10.0,6.0
# From MPC102101
131P/Mueller,e,7.3606,214.1775,179.1299,3.676809,0.1397969,0.34492223,269.5031,05/09.0/2024,2000,g 11.0,4.0
# From MPEC 2024-BE0
132P/Helin-Roman-Alu,e,5.3810,173.9940,216.4605,3.890690,0.1284293,0.56453529,116.5825,05/09.0/2024,2000,g 11.0,6.0
# From MPC 94676
133P/Elst-Pizarro,e,1.3897,160.1017,131.9172,3.164309,0.1750998,0.15598866,359.7671,05/09.0/2024,2000,g 15.4,2.0
# From MPC 89012
134P/Kowal-Vavrova,e,4.3347,202.0097,18.7588,6.267924,0.0628085,0.58515689,229.7627,05/09.0/2024,2000,g 11.5,4.0
# From MPEC 2024-C04
135P/Shoemaker-Levy,e,6.0639,213.0191,22.4042,3.800662,0.1330195,0.29413431,101.4603,05/09.0/2024,2000,g  7.0,8.0
# From MPEC 2022-K19
136P/Mueller,e,9.4281,137.4964,225.1667,4.185987,0.1150820,0.29322810,332.4631,05/09.0/2024,2000,g 11.0,4.0
# From MPEC 2023-J29
137P/Shoemaker-Levy,e,4.8605,232.9242,141.2211,4.522472,0.1024803,0.57352605,202.0448,05/09.0/2024,2000,g 11.0,4.0
# From MPEC 2016-U66
138P/Shoemaker-Levy,e,10.0964,309.2865,95.6362,3.618741,0.1431752,0.53163196,262.0430,05/09.0/2024,2000,g 15.0,6.0
# From MPEC 2020-HN5
139P/Vaisala-Oterma,e,2.3374,242.1821,165.8594,4.515826,0.1027066,0.24835626,239.9337,05/09.0/2024,2000,g  9.5,4.0
# From MPEC 2015-E14
140P/Bowell-Skiff,e,3.7705,343.3493,172.3132,6.406703,0.0607788,0.69601499,195.3344,05/09.0/2024,2000,g 11.5,6.0
# From MPEC 2022-K19
